#dP2023  1 27  0  0  0.00000000      86400 ORBIT IGS14 HLM  IGS
## 2028 345600.00000000   900.00000000 60480 0.0000000000000
+   32   G01G02G03G04G05G06G07G08G09G10G11G12G13G14G15G16G17
+        G18G19G20G21G22G23G24G25G26G27G28G29G30G31G32
++         0  0  0  0  0  0  0  0  0  0  0  0  0  0  0  0  0
%c M  cc GPS ccc cccc cccc cccc cccc ccccc ccccc ccccc ccccc
%c cc cc ccc ccc cccc cccc cccc cccc ccccc ccccc ccccc ccccc
%f  1.2500000  1.025000000  0.00000000000  0.000000000000000
%f  0.0000000  0.000000000  0.00000000000  0.000000000000000
%i    0    0    0    0      0      0      0      0         0
%i    0    0    0    0      0      0      0      0         0
/* INTERPOLATED TO 1 SECOND INTERVAL
/* CREATED BY SP3 INTERPOLATION SCRIPT
/* FILTERED FROM 2024-07-04 06:00:00 TO 2024-07-04 07:00:00
/* 
*  2024  7  4  6 26 40.00000000
PG01  21117.206093   3242.337877  15614.248882      0.000000
PG02   4713.183015 -17034.542109 -19253.287036      0.000000
PG03  -8389.818499 -20091.239133 -15458.065613      0.000000
PG04    320.285577 -25652.440655   6615.363149      0.000000
PG05  -6927.092962  13306.621918  21729.669557      0.000000
PG06 -25280.091162   4349.303798  -7041.962557      0.000000
PG07 -15086.000220  -9720.601384  20239.617408      0.000000
PG08   6354.703552 -25119.746237   4573.682395      0.000000
PG09  -8855.538534 -19081.073131  16098.697051      0.000000
PG10  22519.421114   8676.535626 -11248.977078      0.000000
PG11 -22594.114891  12264.333765   6578.088659      0.000000
PG12   4547.554746  20275.886339 -16849.196438      0.000000
PG13 -13602.937151  20033.810275  10416.460487      0.000000
PG14 -22607.316868 -11664.213621  -7976.744171      0.000000
PG15  -2977.928402  25913.712039   3929.120169      0.000000
PG16  11610.275359  -9666.139057  21527.442494      0.000000
PG17 -14018.093336  -5158.948887 -21537.291639      0.000000
PG18  15379.700811   8773.504935  19874.485844      0.000000
PG19 -15995.699725   4226.035731 -20857.605735      0.000000
PG20 -15816.066781   7470.147565  20006.276287      0.000000
PG21   9712.354229 -17565.553149 -16408.108977      0.000000
PG22 -20825.534694  -5796.655344 -14817.068489      0.000000
PG23  21219.121594  16161.904799    -89.083493      0.000000
PG24  -5896.635997  18316.936277 -18562.032778      0.000000
PG25  14753.044702  20221.147504  -9599.806722      0.000000
PG26  21067.794377   -239.050692  16231.956578      0.000000
PG27  12561.958696 -18342.419941  13919.351738      0.000000
PG28  24637.666125  -3279.188421  -9373.720597      0.000000
PG29   4826.553594  21812.136199  14217.818359      0.000000
PG30 -23027.044448  -1831.835738  13490.818786      0.000000
PG31  24782.645606  -9996.197779   1459.234024      0.000000
PG32  14851.477190   2631.243348 -21651.004412      0.000000
*  2024  7  4  6 26 45.00000000
PG01  21124.385633   3249.642681  15603.438979      0.000000
PG02   4724.997633 -17039.460497 -19246.063155      0.000000
PG03  -8381.940294 -20085.672758 -15469.632578      0.000000
PG04    322.389638 -25656.308775   6600.139773      0.000000
PG05  -6938.459932  13298.445166  21731.077469      0.000000
PG06 -25276.173904   4346.943524  -7057.279277      0.000000
PG07 -15074.736117  -9725.399756  20245.637156      0.000000
PG08   6356.013079 -25116.546823   4589.248011      0.000000
PG09  -8853.197941 -19091.162060  16088.049952      0.000000
PG10  22524.527081   8681.704049 -11235.173324      0.000000
PG11 -22598.469328  12264.417973   6562.873851      0.000000
PG12   4539.355148  20269.394777 -16859.361372      0.000000
PG13 -13602.085123  20026.949719  10430.586402      0.000000
PG14 -22610.237469 -11668.601657  -7962.216081      0.000000
PG15  -2979.799727  25910.875860   3944.511025      0.000000
PG16  11620.398863  -9656.386780  21526.590487      0.000000
PG17 -14014.898797  -5172.752668 -21536.003939      0.000000
PG18  15368.055903   8778.222764  19881.312919      0.000000
PG19 -15992.787413   4213.266902 -20862.660324      0.000000
PG20 -15826.862169   7463.498324  20000.126899      0.000000
PG21   9722.813771 -17569.289456 -16397.663162      0.000000
PG22 -20831.766132  -5804.351206 -14805.468953      0.000000
PG23  21218.554462  16162.754126    -73.065759      0.000000
PG24  -5907.338606  18321.183979 -18554.050025      0.000000
PG25  14747.662388  20218.569333  -9613.868813      0.000000
PG26  21075.762001   -232.244261  16221.989015      0.000000
PG27  12561.838008 -18333.164907  13931.604495      0.000000
PG28  24632.678170  -3275.705057  -9388.049853      0.000000
PG29   4823.493071  21820.743912  14205.626628      0.000000
PG30 -23019.642962  -1836.067295  13502.872764      0.000000
PG31  24784.084260  -9995.273964   1443.597265      0.000000
PG32  14849.452761   2645.093809 -21650.805218      0.000000
*  2024  7  4  6 26 50.00000000
PG01  21131.561947   3256.940936  15592.620685      0.000000
PG02   4736.806655 -17044.380255 -19238.828531      0.000000
PG03  -8374.054756 -20080.104288 -15481.191446      0.000000
PG04    324.490751 -25660.168091   6584.912858      0.000000
PG05  -6949.830031  13290.271276  21732.473619      0.000000
PG06 -25272.248345   4344.578667  -7072.592260      0.000000
PG07 -15063.469931  -9730.202740  20251.646710      0.000000
PG08   6357.322309 -25113.337962   4604.811117      0.000000
PG09  -8850.861134 -19101.244997  16077.394226      0.000000
PG10  22529.627917   8686.865321 -11221.363638      0.000000
PG11 -22602.814655  12264.500444   6547.655542      0.000000
PG12   4531.149057  20262.901343 -16869.517532      0.000000
PG13 -13601.232509  20020.080310  10444.706643      0.000000
PG14 -22613.152382 -11672.982981  -7947.683803      0.000000
PG15  -2981.671901  25908.030421   3959.899739      0.000000
PG16  11630.524659  -9646.637881  21525.726687      0.000000
PG17 -14011.708432  -5186.556603 -21534.704321      0.000000
PG18  15356.408361   8782.945614  19888.129489      0.000000
PG19 -15989.878095   4200.494287 -20867.703896      0.000000
PG20 -15837.656106   7456.853983  19993.966890      0.000000
PG21   9733.266321 -17573.025676 -16387.207967      0.000000
PG22 -20837.994418  -5812.040085 -14793.861220      0.000000
PG23  21217.979626  16163.597531    -57.047986      0.000000
PG24  -5918.035824  18325.432367 -18546.057597      0.000000
PG25  14742.272526  20215.987320  -9627.925930      0.000000
PG26  21083.726227   -225.443547  16212.012860      0.000000
PG27  12561.718805 -18323.902098  13943.849557      0.000000
PG28  24627.682936  -3272.216748  -9402.374116      0.000000
PG29   4820.436876  21829.345047  14193.427271      0.000000
PG30 -23012.235642  -1840.303541  13514.919711      0.000000
PG31  24785.513998  -9994.347326   1427.959756      0.000000
PG32  14847.432353   2658.944661 -21650.594282      0.000000
*  2024  7  4  6 26 55.00000000
PG01  21138.735027   3264.232640  15581.794006      0.000000
PG02   4748.610075 -17049.301375 -19231.583169      0.000000
PG03  -8366.161888 -20074.533731 -15492.742209      0.000000
PG04    326.588922 -25664.018598   6569.682414      0.000000
PG05  -6961.203253  13282.100252  21733.858007      0.000000
PG06 -25268.314492   4342.209221  -7087.901498      0.000000
PG07 -15052.201668  -9735.010336  20257.646069      0.000000
PG08   6358.631251 -25110.119654   4620.371702      0.000000
PG09  -8848.528109 -19111.321937  16066.729880      0.000000
PG10  22534.723617   8692.019445 -11207.548026      0.000000
PG11 -22607.150874  12264.581170   6532.433741      0.000000
PG12   4522.936475  20256.406044 -16879.664910      0.000000
PG13 -13600.379316  20013.202049  10458.821200      0.000000
PG14 -22616.061602 -11677.357593  -7933.147344      0.000000
PG15  -2983.544931  25905.175725   3975.286303      0.000000
PG16  11640.652739  -9636.892365  21524.851097      0.000000
PG17 -14008.522243  -5200.360683 -21533.392785      0.000000
PG18  15344.758193   8787.673487  19894.935550      0.000000
PG19 -15986.971776   4187.717891 -20872.736447      0.000000
PG20 -15848.448583   7450.214546  19987.796264      0.000000
PG21   9743.711873 -17576.761802 -16376.743399      0.000000
PG22 -20844.219544  -5819.721978 -14782.245297      0.000000
PG23  21217.397080  16164.435018    -41.030183      0.000000
PG24  -5928.727644  18329.681436 -18538.055498      0.000000
PG25  14736.875115  20213.401472  -9641.978067      0.000000
PG26  21091.687046   -218.648549  16202.028117      0.000000
PG27  12561.601094 -18314.631521  13956.086918      0.000000
PG28  24622.680428  -3268.723489  -9416.693380      0.000000
PG29   4817.385003  21837.939597  14181.220297      0.000000
PG30 -23004.822492  -1844.544477  13526.959621      0.000000
PG31  24786.934821  -9993.417860   1412.321505      0.000000
PG32  14845.415968   2672.795897 -21650.371602      0.000000
EOF
